start=new Date('2021-09-04T00:00:00.000Z').valueOf();
sats=[{"GP_ID":"184047666","DECAY_DATE":null,"APOAPSIS":"548.209","OBJECT_TYPE":"PAYLOAD","COUNTRY_CODE":"US","LAUNCH_DATE":"2019-11-11","REV_AT_EPOCH":"10034","MEAN_MOTION_DOT":"0.00001221","EPOCH":"2021-09-03T17:18:56.914848","BSTAR":"0.00010083000000","OBJECT_NAME":"STARLINK-1010","ARG_OF_PERICENTER":"106.5256","OBJECT_ID":"2019-074D","ELEMENT_SET_NO":"999","NORAD_CAT_ID":"44716","ECCENTRICITY":"0.00014580","REF_FRAME":"TEME","MEAN_ANOMALY":"253.5893","MEAN_MOTION_DDOT":"0.0000000000000","PERIAPSIS":"546.190","CENTER_NAME":"EARTH","MEAN_ELEMENT_THEORY":"SGP4","TLE_LINE1":"1 44716U 19074D   21246.72149207  .00001221  00000-0  10083-3 0  9991","PERIOD":"95.592","EPHEMERIS_TYPE":"0","CLASSIFICATION_TYPE":"U","FILE":"3108332","TLE_LINE2":"2 44716  53.0573  24.6220 0001458 106.5256 253.5893 15.06404584100346","SEMIMAJOR_AXIS":"6925.335","RA_OF_ASC_NODE":"24.6220","SITE":"AFETR","TIME_SYSTEM":"UTC","MEAN_MOTION":"15.06404584","INCLINATION":"53.0573","RCS_SIZE":"LARGE"},{"COUNTRY_CODE":"US","OBJECT_TYPE":"PAYLOAD","LAUNCH_DATE":"2019-11-11","REV_AT_EPOCH":"10008","EPOCH":"2021-09-03T17:16:20.139456","MEAN_MOTION_DOT":"0.00000877","DECAY_DATE":null,"GP_ID":"184048414","APOAPSIS":"548.586","ELEMENT_SET_NO":"999","OBJECT_ID":"2019-074E","REF_FRAME":"TEME","ECCENTRICITY":"0.00019500","NORAD_CAT_ID":"44717","MEAN_ANOMALY":"266.2755","BSTAR":"0.00007779800000","OBJECT_NAME":"STARLINK-1011","ARG_OF_PERICENTER":"93.8457","TLE_LINE1":"1 44717U 19074E   21246.71967754  .00000877  00000-0  77798-4 0  9999","PERIOD":"95.593","CLASSIFICATION_TYPE":"U","EPHEMERIS_TYPE":"0","TLE_LINE2":"2 44717  53.0547  44.6448 0001950  93.8457 266.2755 15.06392937100087","FILE":"3108332","CENTER_NAME":"EARTH","PERIAPSIS":"545.885","MEAN_MOTION_DDOT":"0.0000000000000","MEAN_ELEMENT_THEORY":"SGP4","MEAN_MOTION":"15.06392937","INCLINATION":"53.0547","RCS_SIZE":"LARGE","RA_OF_ASC_NODE":"44.6448","SEMIMAJOR_AXIS":"6925.370","SITE":"AFETR","TIME_SYSTEM":"UTC"},{"DECAY_DATE":null,"GP_ID":"184048166","APOAPSIS":"548.001","COUNTRY_CODE":"US","OBJECT_TYPE":"PAYLOAD","EPOCH":"2021-09-03T16:36:29.884320","MEAN_MOTION_DOT":"0.00001224","REV_AT_EPOCH":"10035","LAUNCH_DATE":"2019-11-11","OBJECT_NAME":"STARLINK-1012","BSTAR":"0.00010104000000","ARG_OF_PERICENTER":"96.3698","ELEMENT_SET_NO":"999","OBJECT_ID":"2019-074F","MEAN_ANOMALY":"263.7420","REF_FRAME":"TEME","ECCENTRICITY":"0.00011410","NORAD_CAT_ID":"44718","PERIAPSIS":"546.421","CENTER_NAME":"EARTH","MEAN_MOTION_DDOT":"0.0000000000000","MEAN_ELEMENT_THEORY":"SGP4","TLE_LINE1":"1 44718U 19074F   21246.69201255  .00001224  00000-0  10104-3 0  9998","TLE_LINE2":"2 44718  53.0558  24.7716 0001141  96.3698 263.7420 15.06400734100350","FILE":"3108332","PERIOD":"95.592","EPHEMERIS_TYPE":"0","CLASSIFICATION_TYPE":"U","RA_OF_ASC_NODE":"24.7716","SEMIMAJOR_AXIS":"6925.346","TIME_SYSTEM":"UTC","SITE":"AFETR","INCLINATION":"53.0558","MEAN_MOTION":"15.06400734","RCS_SIZE":"LARGE"},{"OBJECT_TYPE":"PAYLOAD","COUNTRY_CODE":"US","LAUNCH_DATE":"2019-11-11","REV_AT_EPOCH":"10148","MEAN_MOTION_DOT":"-0.00000165","EPOCH":"2021-09-03T16:47:06.567648","GP_ID":"184046916","DECAY_DATE":null,"APOAPSIS":"548.248","OBJECT_ID":"2019-074G","ELEMENT_SET_NO":"999","ECCENTRICITY":"0.00014700","NORAD_CAT_ID":"44719","REF_FRAME":"TEME","MEAN_ANOMALY":"244.3651","BSTAR":"0.00000780000000","OBJECT_NAME":"STARLINK-1013","ARG_OF_PERICENTER":"115.7490","TLE_LINE1":"1 44719U 19074G   21246.69938157 -.00000165  00000-0  78000-5 0  9992","CLASSIFICATION_TYPE":"U","PERIOD":"95.592","EPHEMERIS_TYPE":"0","FILE":"3108332","TLE_LINE2":"2 44719  53.0545  24.7320 0001470 115.7490 244.3651 15.06394589101485","MEAN_MOTION_DDOT":"0.0000000000000","CENTER_NAME":"EARTH","PERIAPSIS":"546.212","MEAN_ELEMENT_THEORY":"SGP4","MEAN_MOTION":"15.06394589","INCLINATION":"53.0545","RCS_SIZE":"LARGE","SEMIMAJOR_AXIS":"6925.365","RA_OF_ASC_NODE":"24.7320","SITE":"AFETR","TIME_SYSTEM":"UTC"},{"INCLINATION":"53.0548","MEAN_MOTION":"15.06396411","RCS_SIZE":"LARGE","RA_OF_ASC_NODE":"24.6632","SEMIMAJOR_AXIS":"6925.360","TIME_SYSTEM":"UTC","SITE":"AFETR","TLE_LINE1":"1 44720U 19074H   21246.71781109  .00001041  00000-0  88762-4 0  9998","TLE_LINE2":"2 44720  53.0548  24.6632 0001167 124.3222 235.7877 15.06396411100363","FILE":"3108332","EPHEMERIS_TYPE":"0","PERIOD":"95.592","CLASSIFICATION_TYPE":"U","PERIAPSIS":"546.416","CENTER_NAME":"EARTH","MEAN_MOTION_DDOT":"0.0000000000000","MEAN_ELEMENT_THEORY":"SGP4","ELEMENT_SET_NO":"999","OBJECT_ID":"2019-074H","MEAN_ANOMALY":"235.7877","REF_FRAME":"TEME","NORAD_CAT_ID":"44720","ECCENTRICITY":"0.00011670","BSTAR":"0.00008876200000","OBJECT_NAME":"STARLINK-1014","ARG_OF_PERICENTER":"124.3222","COUNTRY_CODE":"US","OBJECT_TYPE":"PAYLOAD","EPOCH":"2021-09-03T17:13:38.878176","MEAN_MOTION_DOT":"0.00001041","REV_AT_EPOCH":"10036","LAUNCH_DATE":"2019-11-11","DECAY_DATE":null,"GP_ID":"184047166","APOAPSIS":"548.033"},{"ARG_OF_PERICENTER":"115.8302","BSTAR":"0.00009733700000","OBJECT_NAME":"STARLINK-1015","NORAD_CAT_ID":"44721","ECCENTRICITY":"0.00010040","REF_FRAME":"TEME","MEAN_ANOMALY":"244.2791","ELEMENT_SET_NO":"999","OBJECT_ID":"2019-074J","APOAPSIS":"547.886","GP_ID":"184047914","DECAY_DATE":null,"LAUNCH_DATE":"2019-11-11","REV_AT_EPOCH":"10035","MEAN_MOTION_DOT":"0.00001169","EPOCH":"2021-09-03T16:57:42.120864","OBJECT_TYPE":"PAYLOAD","COUNTRY_CODE":"US","SITE":"AFETR","TIME_SYSTEM":"UTC","SEMIMAJOR_AXIS":"6925.326","RA_OF_ASC_NODE":"24.7004","RCS_SIZE":"LARGE","MEAN_MOTION":"15.06407418","INCLINATION":"53.0548","MEAN_ELEMENT_THEORY":"SGP4","MEAN_MOTION_DDOT":"0.0000000000000","CENTER_NAME":"EARTH","PERIAPSIS":"546.496","PERIOD":"95.592","CLASSIFICATION_TYPE":"U","EPHEMERIS_TYPE":"0","FILE":"3108332","TLE_LINE2":"2 44721  53.0548  24.7004 0001004 115.8302 244.2791 15.06407418100351","TLE_LINE1":"1 44721U 19074J   21246.70673751  .00001169  00000-0  97337-4 0  9990"},{"MEAN_ELEMENT_THEORY":"SGP4","MEAN_MOTION_DDOT":"0.0000000000000","CENTER_NAME":"EARTH","PERIAPSIS":"546.296","PERIOD":"95.592","EPHEMERIS_TYPE":"0","CLASSIFICATION_TYPE":"U","FILE":"3108332","TLE_LINE2":"2 44722  53.0557  24.6869 0001325 116.7706 243.3419 15.06400133100369","TLE_LINE1":"1 44722U 19074K   21246.71044210  .00001008  00000-0  86575-4 0  9998","SITE":"AFETR","TIME_SYSTEM":"UTC","SEMIMAJOR_AXIS":"6925.348","RA_OF_ASC_NODE":"24.6869","RCS_SIZE":"LARGE","MEAN_MOTION":"15.06400133","INCLINATION":"53.0557","APOAPSIS":"548.131","GP_ID":"184048667","DECAY_DATE":null,"LAUNCH_DATE":"2019-11-11","REV_AT_EPOCH":"10036","MEAN_MOTION_DOT":"0.00001008","EPOCH":"2021-09-03T17:03:02.197440","OBJECT_TYPE":"PAYLOAD","COUNTRY_CODE":"US","ARG_OF_PERICENTER":"116.7706","BSTAR":"0.00008657500000","OBJECT_NAME":"STARLINK-1016","ECCENTRICITY":"0.00013250","NORAD_CAT_ID":"44722","REF_FRAME":"TEME","MEAN_ANOMALY":"243.3419","ELEMENT_SET_NO":"999","OBJECT_ID":"2019-074K"},{"SITE":"AFETR","TIME_SYSTEM":"UTC","SEMIMAJOR_AXIS":"6925.369","RA_OF_ASC_NODE":"24.9137","RCS_SIZE":"LARGE","MEAN_MOTION":"15.06393452","INCLINATION":"53.0570","MEAN_ELEMENT_THEORY":"SGP4","MEAN_MOTION_DDOT":"0.0000000000000","PERIAPSIS":"546.328","CENTER_NAME":"EARTH","EPHEMERIS_TYPE":"0","PERIOD":"95.593","CLASSIFICATION_TYPE":"U","FILE":"3108332","TLE_LINE2":"2 44723  53.0570  24.9137 0001308 112.4166 247.6961 15.06393452100353","TLE_LINE1":"1 44723U 19074L   21246.65885891  .00001063  00000-0  90250-4 0  9996","ARG_OF_PERICENTER":"112.4166","OBJECT_NAME":"STARLINK-1017","BSTAR":"0.00009025000000","NORAD_CAT_ID":"44723","ECCENTRICITY":"0.00013080","REF_FRAME":"TEME","MEAN_ANOMALY":"247.6961","ELEMENT_SET_NO":"999","OBJECT_ID":"2019-074L","APOAPSIS":"548.139","GP_ID":"184047417","DECAY_DATE":null,"REV_AT_EPOCH":"10035","LAUNCH_DATE":"2019-11-11","MEAN_MOTION_DOT":"0.00001063","EPOCH":"2021-09-03T15:48:45.409824","OBJECT_TYPE":"PAYLOAD","COUNTRY_CODE":"US"},{"TLE_LINE1":"1 44724U 19074M   21246.68831896  .00000841  00000-0  75317-4 0  9996","PERIOD":"95.592","EPHEMERIS_TYPE":"0","CLASSIFICATION_TYPE":"U","TLE_LINE2":"2 44724  53.0559  24.7880 0001583  96.2832 263.8337 15.06403693100354","FILE":"3108332","CENTER_NAME":"EARTH","PERIAPSIS":"546.106","MEAN_MOTION_DDOT":"0.0000000000000","MEAN_ELEMENT_THEORY":"SGP4","MEAN_MOTION":"15.06403693","INCLINATION":"53.0559","RCS_SIZE":"LARGE","RA_OF_ASC_NODE":"24.7880","SEMIMAJOR_AXIS":"6925.337","SITE":"AFETR","TIME_SYSTEM":"UTC","COUNTRY_CODE":"US","OBJECT_TYPE":"PAYLOAD","LAUNCH_DATE":"2019-11-11","REV_AT_EPOCH":"10035","EPOCH":"2021-09-03T16:31:10.758144","MEAN_MOTION_DOT":"0.00000841","DECAY_DATE":null,"GP_ID":"184047667","APOAPSIS":"548.299","ELEMENT_SET_NO":"999","OBJECT_ID":"2019-074M","REF_FRAME":"TEME","ECCENTRICITY":"0.00015830","NORAD_CAT_ID":"44724","MEAN_ANOMALY":"263.8337","OBJECT_NAME":"STARLINK-1019","BSTAR":"0.00007531700000","ARG_OF_PERICENTER":"96.2832"},{"ELEMENT_SET_NO":"999","OBJECT_ID":"2019-074N","MEAN_ANOMALY":"259.5432","ECCENTRICITY":"0.00018580","NORAD_CAT_ID":"44725","REF_FRAME":"TEME","BSTAR":"0.00010860000000","OBJECT_NAME":"STARLINK-1020","ARG_OF_PERICENTER":"100.5766","OBJECT_TYPE":"PAYLOAD","COUNTRY_CODE":"US","MEAN_MOTION_DOT":"0.00001336","EPOCH":"2021-09-03T16:39:08.652096","LAUNCH_DATE":"2019-11-11","REV_AT_EPOCH":"10007","GP_ID":"184048415","DECAY_DATE":null,"APOAPSIS":"548.490","INCLINATION":"53.0548","MEAN_MOTION":"15.06403380","RCS_SIZE":"LARGE","SEMIMAJOR_AXIS":"6925.338","RA_OF_ASC_NODE":"44.7607","TIME_SYSTEM":"UTC","SITE":"AFETR","TLE_LINE1":"1 44725U 19074N   21246.69385014  .00001336  00000-0  10860-3 0  9995","FILE":"3108332","TLE_LINE2":"2 44725  53.0548  44.7607 0001858 100.5766 259.5432 15.06403380100072","EPHEMERIS_TYPE":"0","PERIOD":"95.592","CLASSIFICATION_TYPE":"U","MEAN_MOTION_DDOT":"0.0000000000000","PERIAPSIS":"545.916","CENTER_NAME":"EARTH","MEAN_ELEMENT_THEORY":"SGP4"}];
